[{"OBJECT_NAME":"COSMO-SKYMED 1","OBJECT_ID":"2007-023A","EPOCH":"2026-03-09T23:58:15.190752","MEAN_MOTION":14.96537365,"ECCENTRICITY":0.0001274,"INCLINATION":97.8873,"RA_OF_ASC_NODE":260.0329,"ARG_OF_PERICENTER":100.0972,"MEAN_ANOMALY":260.0392,"EPHEMERIS_TYPE":0,"CLASSIFICATION_TYPE":"U","NORAD_CAT_ID":31598,"ELEMENT_SET_NO":999,"REV_AT_EPOCH":1495,"BSTAR":0.00038631176,"MEAN_MOTION_DOT":4.334e-5,"MEAN_MOTION_DDOT":0},{"OBJECT_NAME":"STARLINK-5327","OBJECT_ID":"2023-010Y","EPOCH":"2026-03-09T22:37:04.624032","MEAN_MOTION":14.98328369,"ECCENTRICITY":0.00029345,"INCLINATION":70.0014,"RA_OF_ASC_NODE":23.9539,"ARG_OF_PERICENTER":269.241,"MEAN_ANOMALY":90.8413,"EPHEMERIS_TYPE":0,"CLASSIFICATION_TYPE":"U","NORAD_CAT_ID":55291,"ELEMENT_SET_NO":999,"REV_AT_EPOCH":17330,"BSTAR":4.0965856e-5,"MEAN_MOTION_DOT":3.96e-6,"MEAN_MOTION_DDOT":0}]
